[{"OBJECT_NAME":"SALSAT","OBJECT_ID":"2020-068K","EPOCH":"2026-03-09T22:26:21.804576","MEAN_MOTION":15.28191989,"ECCENTRICITY":0.00082652,"INCLINATION":97.8859,"RA_OF_ASC_NODE":66.0795,"ARG_OF_PERICENTER":295.8051,"MEAN_ANOMALY":64.2334,"EPHEMERIS_TYPE":0,"CLASSIFICATION_TYPE":"U","NORAD_CAT_ID":46495,"ELEMENT_SET_NO":999,"REV_AT_EPOCH":30019,"BSTAR":0.00040842582,"MEAN_MOTION_DOT":0.00011156,"MEAN_MOTION_DDOT":0},{"OBJECT_NAME":"STARLINK-31631","OBJECT_ID":"2024-068E","EPOCH":"2026-03-09T22:26:47.756544","MEAN_MOTION":15.2756964,"ECCENTRICITY":9.029e-5,"INCLINATION":43.004,"RA_OF_ASC_NODE":29.382,"ARG_OF_PERICENTER":243.1247,"MEAN_ANOMALY":116.9513,"EPHEMERIS_TYPE":0,"CLASSIFICATION_TYPE":"U","NORAD_CAT_ID":59459,"ELEMENT_SET_NO":999,"REV_AT_EPOCH":10860,"BSTAR":-1.9196613e-5,"MEAN_MOTION_DOT":-7.9e-6,"MEAN_MOTION_DDOT":0}]
